[{"OBJECT_NAME":"STARLINK-32323","OBJECT_ID":"2024-193S","EPOCH":"2026-03-20T03:52:05.334240","MEAN_MOTION":15.30183303,"ECCENTRICITY":0.00013067,"INCLINATION":53.1623,"RA_OF_ASC_NODE":42.0947,"ARG_OF_PERICENTER":91.2102,"MEAN_ANOMALY":268.9049,"EPHEMERIS_TYPE":0,"CLASSIFICATION_TYPE":"U","NORAD_CAT_ID":61677,"ELEMENT_SET_NO":999,"REV_AT_EPOCH":7813,"BSTAR":-0.00012325969,"MEAN_MOTION_DOT":-4.006e-5,"MEAN_MOTION_DDOT":0},{"OBJECT_NAME":"STARLINK-32363","OBJECT_ID":"2024-193T","EPOCH":"2026-03-20T06:54:05.624640","MEAN_MOTION":15.30191761,"ECCENTRICITY":0.00013951,"INCLINATION":53.1614,"RA_OF_ASC_NODE":41.4638,"ARG_OF_PERICENTER":90.5109,"MEAN_ANOMALY":269.6052,"EPHEMERIS_TYPE":0,"CLASSIFICATION_TYPE":"U","NORAD_CAT_ID":61678,"ELEMENT_SET_NO":999,"REV_AT_EPOCH":7815,"BSTAR":2.0569945e-5,"MEAN_MOTION_DOT":2.5e-6,"MEAN_MOTION_DDOT":0},{"OBJECT_NAME":"STARLINK-32395","OBJECT_ID":"2024-193U","EPOCH":"2026-03-20T06:46:39.455040","MEAN_MOTION":15.30187642,"ECCENTRICITY":0.00014492,"INCLINATION":53.162,"RA_OF_ASC_NODE":42.1414,"ARG_OF_PERICENTER":93.6089,"MEAN_ANOMALY":266.5078,"EPHEMERIS_TYPE":0,"CLASSIFICATION_TYPE":"U","NORAD_CAT_ID":61679,"ELEMENT_SET_NO":999,"REV_AT_EPOCH":7814,"BSTAR":1.6681412e-5,"MEAN_MOTION_DOT":1.35e-6,"MEAN_MOTION_DDOT":0},{"OBJECT_NAME":"STARLINK-32412","OBJECT_ID":"2024-193V","EPOCH":"2026-03-20T06:36:00.233280","MEAN_MOTION":15.30215793,"ECCENTRICITY":0.00013466,"INCLINATION":53.1627,"RA_OF_ASC_NODE":42.0948,"ARG_OF_PERICENTER":97.8586,"MEAN_ANOMALY":262.2567,"EPHEMERIS_TYPE":0,"CLASSIFICATION_TYPE":"U","NORAD_CAT_ID":61680,"ELEMENT_SET_NO":999,"REV_AT_EPOCH":7814,"BSTAR":0.00015912431,"MEAN_MOTION_DOT":4.359e-5,"MEAN_MOTION_DDOT":0},{"OBJECT_NAME":"STARLINK-32426","OBJECT_ID":"2024-193W","EPOCH":"2026-03-20T06:42:06.243552","MEAN_MOTION":15.30190975,"ECCENTRICITY":0.00014407,"INCLINATION":53.1626,"RA_OF_ASC_NODE":42.1198,"ARG_OF_PERICENTER":92.8761,"MEAN_ANOMALY":267.2405,"EPHEMERIS_TYPE":0,"CLASSIFICATION_TYPE":"U","NORAD_CAT_ID":61681,"ELEMENT_SET_NO":999,"REV_AT_EPOCH":7814,"BSTAR":5.3546881e-5,"MEAN_MOTION_DOT":1.226e-5,"MEAN_MOTION_DDOT":0},{"OBJECT_NAME":"STARLINK-32429","OBJECT_ID":"2024-193X","EPOCH":"2026-03-20T03:55:06.012192","MEAN_MOTION":15.30192923,"ECCENTRICITY":0.00012493,"INCLINATION":53.1612,"RA_OF_ASC_NODE":42.1003,"ARG_OF_PERICENTER":84.7785,"MEAN_ANOMALY":275.3358,"EPHEMERIS_TYPE":0,"CLASSIFICATION_TYPE":"U","NORAD_CAT_ID":61682,"ELEMENT_SET_NO":999,"REV_AT_EPOCH":7813,"BSTAR":1.5655038e-5,"MEAN_MOTION_DOT":1.04e-6,"MEAN_MOTION_DDOT":0},{"OBJECT_NAME":"STARLINK-11335 [DTC]","OBJECT_ID":"2024-195A","EPOCH":"2026-03-20T02:21:41.307264","MEAN_MOTION":15.69706647,"ECCENTRICITY":9.706e-5,"INCLINATION":53.1585,"RA_OF_ASC_NODE":335.2997,"ARG_OF_PERICENTER":73.1605,"MEAN_ANOMALY":286.952,"EPHEMERIS_TYPE":0,"CLASSIFICATION_TYPE":"U","NORAD_CAT_ID":61687,"ELEMENT_SET_NO":999,"REV_AT_EPOCH":8066,"BSTAR":1.0870879e-5,"MEAN_MOTION_DOT":7.29e-6,"MEAN_MOTION_DDOT":0},{"OBJECT_NAME":"STARLINK-11344 [DTC]","OBJECT_ID":"2024-195B","EPOCH":"2026-03-19T23:11:12.122592","MEAN_MOTION":15.69749811,"ECCENTRICITY":0.000126,"INCLINATION":53.1585,"RA_OF_ASC_NODE":335.8934,"ARG_OF_PERICENTER":146.1047,"MEAN_ANOMALY":214.0052,"EPHEMERIS_TYPE":0,"CLASSIFICATION_TYPE":"U","NORAD_CAT_ID":61688,"ELEMENT_SET_NO":999,"REV_AT_EPOCH":8064,"BSTAR":4.9552e-5,"MEAN_MOTION_DOT":5.428e-5,"MEAN_MOTION_DDOT":0},{"OBJECT_NAME":"STARLINK-11312 [DTC]","OBJECT_ID":"2024-195C","EPOCH":"2026-03-20T02:07:33.755232","MEAN_MOTION":15.69706593,"ECCENTRICITY":0.00011552,"INCLINATION":53.1597,"RA_OF_ASC_NODE":335.2353,"ARG_OF_PERICENTER":104.6111,"MEAN_ANOMALY":255.5035,"EPHEMERIS_TYPE":0,"CLASSIFICATION_TYPE":"U","NORAD_CAT_ID":61689,"ELEMENT_SET_NO":999,"REV_AT_EPOCH":8066,"BSTAR":1.1392976e-5,"MEAN_MOTION_DOT":7.92e-6,"MEAN_MOTION_DDOT":0},{"OBJECT_NAME":"STARLINK-11340 [DTC]","OBJECT_ID":"2024-195D","EPOCH":"2026-03-20T02:00:29.590848","MEAN_MOTION":15.69714002,"ECCENTRICITY":0.00012737,"INCLINATION":53.1598,"RA_OF_ASC_NODE":335.2038,"ARG_OF_PERICENTER":93.8451,"MEAN_ANOMALY":266.2712,"EPHEMERIS_TYPE":0,"CLASSIFICATION_TYPE":"U","NORAD_CAT_ID":61690,"ELEMENT_SET_NO":999,"REV_AT_EPOCH":8066,"BSTAR":-4.302126e-6,"MEAN_MOTION_DOT":-1.11e-5,"MEAN_MOTION_DDOT":0},{"OBJECT_NAME":"STARLINK-11339 [DTC]","OBJECT_ID":"2024-195E","EPOCH":"2026-03-20T00:14:41.081280","MEAN_MOTION":15.69708862,"ECCENTRICITY":7.755e-5,"INCLINATION":53.1588,"RA_OF_ASC_NODE":335.4518,"ARG_OF_PERICENTER":98.6475,"MEAN_ANOMALY":261.4631,"EPHEMERIS_TYPE":0,"CLASSIFICATION_TYPE":"U","NORAD_CAT_ID":61691,"ELEMENT_SET_NO":999,"REV_AT_EPOCH":8065,"BSTAR":1.0997919e-5,"MEAN_MOTION_DOT":7.44e-6,"MEAN_MOTION_DDOT":0},{"OBJECT_NAME":"STARLINK-11315 [DTC]","OBJECT_ID":"2024-195F","EPOCH":"2026-03-20T00:21:44.775648","MEAN_MOTION":15.69710088,"ECCENTRICITY":0.00010363,"INCLINATION":53.16,"RA_OF_ASC_NODE":335.4819,"ARG_OF_PERICENTER":124.7884,"MEAN_ANOMALY":235.3231,"EPHEMERIS_TYPE":0,"CLASSIFICATION_TYPE":"U","NORAD_CAT_ID":61692,"ELEMENT_SET_NO":999,"REV_AT_EPOCH":8065,"BSTAR":9.954708e-6,"MEAN_MOTION_DOT":6.18e-6,"MEAN_MOTION_DDOT":0},{"OBJECT_NAME":"STARLINK-11366 [DTC]","OBJECT_ID":"2024-195G","EPOCH":"2026-03-20T03:10:59.143008","MEAN_MOTION":15.69706599,"ECCENTRICITY":9.202e-5,"INCLINATION":53.1593,"RA_OF_ASC_NODE":334.7898,"ARG_OF_PERICENTER":90.9614,"MEAN_ANOMALY":269.1509,"EPHEMERIS_TYPE":0,"CLASSIFICATION_TYPE":"U","NORAD_CAT_ID":61693,"ELEMENT_SET_NO":999,"REV_AT_EPOCH":8067,"BSTAR":1.2372056e-5,"MEAN_MOTION_DOT":9.11e-6,"MEAN_MOTION_DDOT":0},{"OBJECT_NAME":"STARLINK-11348 [DTC]","OBJECT_ID":"2024-195H","EPOCH":"2026-03-20T03:03:54.190656","MEAN_MOTION":15.69758854,"ECCENTRICITY":5.505e-5,"INCLINATION":53.1592,"RA_OF_ASC_NODE":334.7561,"ARG_OF_PERICENTER":80.749,"MEAN_ANOMALY":279.359,"EPHEMERIS_TYPE":0,"CLASSIFICATION_TYPE":"U","NORAD_CAT_ID":61694,"ELEMENT_SET_NO":999,"REV_AT_EPOCH":8067,"BSTAR":-8.2996617e-5,"MEAN_MOTION_DOT":-0.0001065,"MEAN_MOTION_DDOT":0},{"OBJECT_NAME":"STARLINK-11327 [DTC]","OBJECT_ID":"2024-195J","EPOCH":"2026-03-20T02:56:51.691200","MEAN_MOTION":15.69703728,"ECCENTRICITY":8.752e-5,"INCLINATION":53.1585,"RA_OF_ASC_NODE":334.7214,"ARG_OF_PERICENTER":109.6048,"MEAN_ANOMALY":250.5065,"EPHEMERIS_TYPE":0,"CLASSIFICATION_TYPE":"U","NORAD_CAT_ID":61695,"ELEMENT_SET_NO":999,"REV_AT_EPOCH":8067,"BSTAR":-3.8596e-8,"MEAN_MOTION_DOT":-5.93e-6,"MEAN_MOTION_DDOT":0},{"OBJECT_NAME":"STARLINK-11341 [DTC]","OBJECT_ID":"2024-195K","EPOCH":"2026-03-20T02:49:49.652256","MEAN_MOTION":15.69670345,"ECCENTRICITY":0.00010059,"INCLINATION":53.1591,"RA_OF_ASC_NODE":334.6881,"ARG_OF_PERICENTER":77.6948,"MEAN_ANOMALY":282.4183,"EPHEMERIS_TYPE":0,"CLASSIFICATION_TYPE":"U","NORAD_CAT_ID":61696,"ELEMENT_SET_NO":999,"REV_AT_EPOCH":8067,"BSTAR":-2.3809483e-5,"MEAN_MOTION_DOT":-3.467e-5,"MEAN_MOTION_DDOT":0}]
