STARLINK-32323          
1 61677U 24193S   26079.16117285 -.00004006  00000+0 -12326-3 0  9999
2 61677  53.1623  42.0947 0001306  91.2102 268.9049 15.30183303 78134
STARLINK-32363          
1 61678U 24193T   26079.28756510  .00000250  00000+0  20570-4 0  9999
2 61678  53.1614  41.4638 0001395  90.5109 269.6052 15.30191761 78153
STARLINK-32395          
1 61679U 24193U   26079.28240110  .00000135  00000+0  16681-4 0  9994
2 61679  53.1620  42.1414 0001449  93.6089 266.5078 15.30187642 78148
STARLINK-32412          
1 61680U 24193V   26079.27500270  .00004359  00000+0  15912-3 0  9998
2 61680  53.1627  42.0948 0001346  97.8586 262.2567 15.30215793 78147
STARLINK-32426          
1 61681U 24193W   26079.27923893  .00001226  00000+0  53547-4 0  9996
2 61681  53.1626  42.1198 0001440  92.8761 267.2405 15.30190975 78140
STARLINK-32429          
1 61682U 24193X   26079.16326403  .00000104  00000+0  15655-4 0  9991
2 61682  53.1612  42.1003 0001249  84.7785 275.3358 15.30192923 78135
STARLINK-11335 [DTC]    
1 61687U 24195A   26079.09839476  .00000729  00000+0  10871-4 0  9997
2 61687  53.1585 335.2997 0000970  73.1605 286.9520 15.69706647 80666
STARLINK-11344 [DTC]    
1 61688U 24195B   26078.96611253  .00005428  00000+0  49552-4 0  9993
2 61688  53.1585 335.8934 0001260 146.1047 214.0052 15.69749811 80648
STARLINK-11312 [DTC]    
1 61689U 24195C   26079.08858513  .00000792  00000+0  11393-4 0  9991
2 61689  53.1597 335.2353 0001155 104.6111 255.5035 15.69706593 80668
STARLINK-11340 [DTC]    
1 61690U 24195D   26079.08367582 -.00001110  00000+0 -43021-5 0  9995
2 61690  53.1598 335.2038 0001273  93.8451 266.2712 15.69714002 80663
STARLINK-11339 [DTC]    
1 61691U 24195E   26079.01019770  .00000744  00000+0  10998-4 0  9998
2 61691  53.1588 335.4518 0000775  98.6475 261.4631 15.69708862 80656
STARLINK-11315 [DTC]    
1 61692U 24195F   26079.01510157  .00000618  00000+0  99547-5 0  9992
2 61692  53.1600 335.4819 0001036 124.7884 235.3231 15.69710088 80651
STARLINK-11366 [DTC]    
1 61693U 24195G   26079.13262897  .00000911  00000+0  12372-4 0  9997
2 61693  53.1593 334.7898 0000920  90.9614 269.1509 15.69706599 80675
STARLINK-11348 [DTC]    
1 61694U 24195H   26079.12771054 -.00010650  00000+0 -82997-4 0  9990
2 61694  53.1592 334.7561 0000550  80.7490 279.3590 15.69758854 80674
STARLINK-11327 [DTC]    
1 61695U 24195J   26079.12282050 -.00000593  00000+0 -38596-7 0  9998
2 61695  53.1585 334.7214 0000875 109.6048 250.5065 15.69703728 80670
STARLINK-11341 [DTC]    
1 61696U 24195K   26079.11793579 -.00003467  00000+0 -23809-4 0  9992
2 61696  53.1591 334.6881 0001005  77.6948 282.4183 15.69670345 80679
